STARLINK-3247           
1 49747U 21115Z   24151.47554072  .00002766  00000+0  19178-3 0  9997
2 49747  53.2158 179.0667 0001330  97.4893 262.6250 15.08850194137678
STARLINK-3248           
1 49748U 21115AA  24151.45341760  .00000756  00000+0  65556-4 0  9993
2 49748  53.2161 178.7397 0001363  86.8783 273.2365 15.08839135137683
STARLINK-3250           
1 49749U 21115AB  24151.37349193 -.00001326  00000+0 -65201-4 0  9996
2 49749  53.2159 179.7658 0001633 101.4150 258.7025 15.08845585137658
STARLINK-3236           
1 49750U 21115AC  24151.30354620  .00000983  00000+0  79866-4 0  9990
2 49750  53.2157 179.8519 0001205  94.2915 265.8215 15.08839667137652
STARLINK-3229           
1 49751U 21115AD  24151.48289135  .00001503  00000+0  11249-3 0  9997
2 49751  53.2162 178.9579 0001332  84.0870 276.0274 15.08847622137685
STARLINK-3209           
1 49752U 21115AE  24151.31918584  .00000641  00000+0  58349-4 0  9992
2 49752  53.2155 169.7783 0001243  88.4817 271.6318 15.08840051137794
STARLINK-3200           
1 49753U 21115AF  24151.49762766  .00000251  00000+0  33873-4 0  9993
2 49753  53.2156 178.9690 0001310  92.4270 267.6872 15.08838212137682
STARLINK-3193           
1 49754U 21115AG  24151.32191378  .00001037  00000+0  83187-4 0  9997
2 49754  53.2156 169.8619 0001236  97.0375 263.0758 15.08845978137799
STARLINK-3210           
1 49755U 21115AH  24151.37714667  .00002247  00000+0  15924-3 0  9992
2 49755  53.2162 179.5565 0001334  89.4590 270.6555 15.08842471137668
STARLINK-3207           
1 49756U 21115AJ  24151.32926192  .00001442  00000+0  10868-3 0  9994
2 49756  53.2157 169.7225 0001264  85.6958 274.4179 15.08846622137795
STARLINK-3197           
1 49757U 21115AK  24151.32286181  .00001406  00000+0  10642-3 0  9992
2 49757  53.2162 169.7624 0001371  89.5498 270.5651 15.08846603137797
STARLINK-3194           
1 49758U 21115AL  24151.46910738  .00000373  00000+0  41541-4 0  9995
2 49758  53.2160 169.0974 0001432  88.8581 271.2575 15.08850404137810
STARLINK-3204           
1 49759U 21115AM  24151.32558290  .00001106  00000+0  87567-4 0  9995
2 49759  53.2166 169.7401 0001308  72.2373 287.8762 15.08838056137794
STARLINK-3199           
1 49760U 21115AN  24151.34398983  .00000615  00000+0  56733-4 0  9995
2 49760  53.2160 169.6587 0001293  92.1129 268.0011 15.08837354137807
STARLINK-3203           
1 49761U 21115AP  24151.46542572  .00001019  00000+0  82099-4 0  9997
2 49761  53.2155 169.1147 0001325  90.8835 269.2309 15.08842143137810
STARLINK-3195           
1 49762U 21115AQ  24151.35134564  .00000817  00000+0  69407-4 0  9997
2 49762  53.2154 169.6260 0001470  83.7046 276.4113 15.08841142137807
STARLINK-3198           
1 49763U 21115AR  24151.34030750  .00000647  00000+0  58715-4 0  9990
2 49763  53.2160 169.6753 0001498  90.8873 269.2290 15.08841016137805
STARLINK-3206           
1 49764U 21115AS  24151.49118866  .00001304  00000+0  99976-4 0  9997
2 49764  53.2156 168.9964 0001323  96.6596 263.4547 15.08841510138946
STARLINK-3227           
1 49765U 21115AT  24151.48110144  .00001355  00000+0  10321-3 0  9990
2 49765  53.2157 169.0535 0001299  87.0225 273.0915 15.08844380137829
STARLINK-3190           
1 49766U 21115AU  24151.36334609  .00001255  00000+0  96930-4 0  9992
2 49766  53.2157 169.5807 0001326  91.9717 268.1427 15.08841813137807
STARLINK-3192           
1 49767U 21115AV  24151.28879094  .00000621  00000+0  57075-4 0  9999
2 49767  53.2152 169.9037 0001137  89.4062 270.7060 15.08837948137791
STARLINK-3196           
1 49768U 21115AW  24151.43598667  .00001212  00000+0  94236-4 0  9998
2 49768  53.2160 169.2449 0001225  92.1939 267.9193 15.08843068137811
STARLINK-3208           
1 49769U 21115AX  24151.37070053 -.00001145  00000+0 -53838-4 0  9996
2 49769  53.2149 169.5869 0001334  92.8197 267.2948 15.08839790137809
STARLINK-3191           
1 49770U 21115AY  24151.37808395 -.00001391  00000+0 -69319-4 0  9990
2 49770  53.2154 169.5518 0001230 101.7965 258.3165 15.08828158138928
STARLINK-3201           
1 49771U 21115AZ  24151.44335121  .00001367  00000+0  10398-3 0  9994
2 49771  53.2162 169.2101 0001409  95.9686 264.1467 15.08841713137814
STARLINK-3317           
1 50156U 21125A   24151.65866794  .00001555  00000+0  11576-3 0  9990
2 50156  53.2177 278.2447 0001198  86.5829 273.5301 15.08842855138802
STARLINK-3313           
1 50157U 21125B   24151.61630681  .00001398  00000+0  10593-3 0  9994
2 50157  53.2191 288.4393 0001315 101.8997 258.2142 15.08842356138663
STARLINK-3309           
1 50158U 21125C   24151.60622626  .00001283  00000+0  98662-4 0  9991
2 50158  53.2182 288.4905 0001032 100.5058 259.6050 15.08841163135534
STARLINK-3297           
1 50159U 21125D   24151.66878275  .00005737  00000+0  37812-3 0  9998
2 50159  53.2176 288.2138 0001434  94.9352 265.1804 15.08852864138625
STARLINK-3288           
1 50160U 21125E   24151.60894159  .00002039  00000+0  14610-3 0  9996
2 50160  53.2182 288.4712 0001133  89.0405 271.0717 15.08847718138625
STARLINK-3304           
1 50161U 21125F   24151.61263241  .00012080  00000+0  77650-3 0  9990
2 50161  53.2191 288.4541 0001558  99.5229 260.5939 15.08804478138611
STARLINK-3306           
1 50163U 21125H   24151.72854403  .00001491  00000+0  11170-3 0  9999
2 50163  53.2179 267.9216 0001091  71.8475 288.2636 15.08845702138917
STARLINK-3298           
1 50165U 21125K   24151.59790789  .00001152  00000+0  90429-4 0  9991
2 50165  53.2174 288.5190 0001034  84.7617 275.3493 15.08839588135530
STARLINK-3305           
1 50166U 21125L   24151.61449397  .00002520  00000+0  17629-3 0  9991
2 50166  53.2172 278.3782 0000930  60.2313 299.8772 15.08847998135679
STARLINK-3271           
1 50167U 21125M   24151.59150385  .00000380  00000+0  41939-4 0  9999
2 50167  53.2172 288.5578 0001158  80.6000 279.5123 15.08841328138611
STARLINK-3296           
1 50168U 21125N   24151.62555579  .00001220  00000+0  94696-4 0  9990
2 50168  53.2180 278.4824 0001258  78.5462 281.5672 15.08844096138765
STARLINK-3301           
1 50169U 21125P   24151.72026153  .00003197  00000+0  21879-3 0  9990
2 50169  53.2176 277.9662 0000711  78.3262 281.7810 15.08853811138787
STARLINK-3245           
1 50170U 21125Q   24151.60986165  .00001515  00000+0  11319-3 0  9997
2 50170  53.2187 278.4658 0001158  74.4463 285.6657 15.08852045138755
STARLINK-3286           
1 50171U 21125R   24151.75706439  .00000940  00000+0  77100-4 0  9990
2 50171  53.2185 277.8037 0001155 106.0689 254.0431 15.08846839138784
STARLINK-3287           
1 50172U 21125S   24151.73497968  .00004046  00000+0  27201-3 0  9990
2 50172  53.2174 277.9031 0001244  93.5394 266.5740 15.08857306138816
STARLINK-3289           
1 50173U 21125T   24151.63654522  .00002868  00000+0  19816-3 0  9994
2 50173  53.2166 268.4093 0000950  86.8498 273.2603 15.08853098138912
STARLINK-3292           
1 50174U 21125U   24151.58049823  .00030991  00000+0  17484-2 0  9997
2 50174  53.2175 277.7911 0002503 324.7390  35.3438 15.12922809138810
STARLINK-3291           
1 50175U 21125V   24151.94474154  .00009613  00000+0  62081-3 0  9998
2 50175  53.2170 276.9617 0000887  95.4871 264.6222 15.08866124138819
STARLINK-3293           
1 50176U 21125W   24151.72762184  .00003021  00000+0  20777-3 0  9991
2 50176  53.2186 277.9377 0001553  92.3418 267.7752 15.08853896138820
STARLINK-3282           
1 50177U 21125X   24151.67242803  .00002195  00000+0  15589-3 0  9993
2 50177  53.2184 278.1833 0000851  82.8467 277.2622 15.08845655138777
STARLINK-3284           
1 50178U 21125Y   24151.61816871  .00002257  00000+0  15984-3 0  9998
2 50178  53.2177 278.2840 0000972  73.7777 286.3322 15.08844816138806
STARLINK-3283           
1 50179U 21125Z   24151.73129783  .00004834  00000+0  32142-3 0  9999
2 50179  53.2173 277.9190 0000785  77.9745 282.1335 15.08858546138780
STARLINK-3265           
1 50180U 21125AA  24151.58506866  .00001863  00000+0  13507-3 0  9998
2 50180  53.2176 278.5901 0000882  93.1513 266.9580 15.08840574135672
STARLINK-3285           
1 50181U 21125AB  24151.57769925  .00002642  00000+0  18395-3 0  9991
2 50181  53.2164 278.6192 0001252  90.3687 269.7449 15.08851722138761
STARLINK-3277           
1 50182U 21125AC  24151.75336642  .00002465  00000+0  17292-3 0  9996
2 50182  53.2183 277.6653 0001189  98.9866 261.1261 15.08841357138824
STARLINK-3281           
1 50183U 21125AD  24151.63930749  .00004148  00000+0  27850-3 0  9993
2 50183  53.2171 278.3329 0001281  94.5298 265.5841 15.08848132138813
STARLINK-3279           
1 50185U 21125AF  24151.58411529  .00001161  00000+0  91011-4 0  9992
2 50185  53.2172 278.6167 0000952  91.3988 268.7113 15.08837414138283
STARLINK-3274           
1 50186U 21125AG  24151.66046581  .00001888  00000+0  13663-3 0  9996
2 50186  53.2170 288.2381 0001187  94.4045 265.7083 15.08845189138625
STARLINK-3272           
1 50187U 21125AH  24151.62182719  .00001496  00000+0  11207-3 0  9994
2 50187  53.2176 268.4096 0001138  86.4023 273.7099 15.08842941138885
STARLINK-3275           
1 50188U 21125AJ  24151.58125738  .00000602  00000+0  51597-4 0  9993
2 50188  53.2175 246.6649 0000981  90.4187 269.6919 15.12111296139252
STARLINK-3276           
1 50189U 21125AK  24151.62922062  .00000530  00000+0  51359-4 0  9990
2 50189  53.2178 278.3888 0001151  76.1252 283.9868 15.08848351138803
STARLINK-3268           
1 50190U 21125AL  24151.54454211  .00001822  00000+0  13251-3 0  9992
2 50190  53.2180 268.7601 0001256  91.1392 268.9744 15.08846115138882
STARLINK-3273           
1 50191U 21125AM  24151.68622737  .00001740  00000+0  12735-3 0  9993
2 50191  53.2172 288.1208 0001068  79.8641 280.2471 15.08843605138621
STARLINK-3259           
1 50192U 21125AN  24151.73958647  .00001463  00000+0  10999-3 0  9994
2 50192  53.2178 267.8825 0001188  98.0194 262.0933 15.08843800138916
